NORAD_CAT_ID,OBJECT_NAME,OBJECT_TYPE,EPOCH,MEAN_MOTION,ECCENTRICITY,INCLINATION,RA_OF_ASC_NODE,ARG_OF_PERICENTER,MEAN_ANOMALY,BSTAR,MEAN_MOTION_DOT,MEAN_MOTION_DDOT,TLE_LINE0,TLE_LINE1,TLE_LINE2,SEMIMAJOR_AXIS,PERIOD,APOGEE,PERIGEE,DECAYED
52559.0,STARLINK-3953,PAYLOAD,2022-11-04 02:42:04,15.08844815,0.0001476,53.2175,202.9929,49.3796,310.7325,0.00042338,6.457e-05,0.0,0 STARLINK-3953,1 52559U 22051AC  22308.11255061  .00006457  00000-0  42338-3 0  9997,2 52559  53.2175 202.9929 0001476  49.3796 310.7325 15.08844815 27239,6917.866,95.437,540.752,538.71,0.0
52559.0,STARLINK-3953,PAYLOAD,2022-11-04 10:39:00,15.08852979,0.0001422,53.2167,201.5054,62.2856,297.828,0.0004071,6.199e-05,0.0,0 STARLINK-3953,1 52559U 22051AC  22308.44375209  .00006199  00000-0  40710-3 0  9995,2 52559  53.2167 201.5054 0001422  62.2856 297.8280 15.08852979 27219,6917.840999999999,95.437,540.689,538.722,0.0
52559.0,STARLINK-3953,PAYLOAD,2022-11-04 20:11:19,15.08844727,0.000146,53.2179,199.7216,69.7071,290.4078,0.0003282,4.94e-05,0.0,0 STARLINK-3953,1 52559U 22051AC  22308.84119724  .00004940  00000-0  32820-3 0  9992,2 52559  53.2179 199.7216 0001460  69.7071 290.4078 15.08844727 27275,6917.866,95.437,540.741,538.721,0.0
52559.0,STARLINK-3953,PAYLOAD,2022-11-05 02:32:51,15.08840964,0.0001307,53.2179,198.5309,65.9234,294.1894,0.00031798,4.776e-05,0.0,0 STARLINK-3953,1 52559U 22051AC  22309.10615678  .00004776  00000-0  31798-3 0  9991,2 52559  53.2179 198.5309 0001307  65.9234 294.1894 15.08840964 27315,6917.877,95.437,540.6469999999998,538.8380000000002,0.0
52559.0,STARLINK-3953,PAYLOAD,2022-11-05 18:26:43,15.08840465,0.0001556,53.2174,195.5585,81.5011,278.6158,-4.5878e-05,-1.018e-05,0.0,0 STARLINK-3953,1 52559U 22051AC  22309.76855992 -.00001018  00000-0 -45878-4 0  9991,2 52559  53.2174 195.5585 0001556  81.5011 278.6158 15.08840465 27480,6917.879,95.438,540.82,538.668,0.0
52559.0,STARLINK-3953,PAYLOAD,2022-11-06 03:59:02,15.08830452,0.0001589,53.2168,193.7739,64.1178,295.9978,-0.00020389,-3.531e-05,0.0,0 STARLINK-3953,1 52559U 22051AC  22310.16600603 -.00003531  00000-0 -20389-3 0  9995,2 52559  53.2168 193.7739 0001589  64.1178 295.9978 15.08830452 27545,6917.91,95.438,540.874,538.675,0.0
52559.0,STARLINK-3953,PAYLOAD,2022-11-06 21:28:17,15.08837765,0.0001679,53.2165,190.5044,61.609,298.5071,8.162399999999999e-05,1.011e-05,0.0,0 STARLINK-3953,1 52559U 22051AC  22310.89464587  .00001011  00000-0  81624-4 0  9993,2 52559  53.2165 190.5044 0001679  61.6090 298.5071 15.08837765 27650,6917.887,95.438,540.914,538.591,0.0
52559.0,STARLINK-3953,PAYLOAD,2022-11-07 19:43:41,15.08851984,0.0001604,53.216,186.3405,67.2469,292.8692,0.00052229,8.037e-05,0.0,0 STARLINK-3953,1 52559U 22051AC  22311.82200586  .00008037  00000-0  52229-3 0  9997,2 52559  53.2160 186.3405 0001604  67.2469 292.8692 15.08851984 27722,6917.844,95.437,540.818,538.599,0.0
52559.0,STARLINK-3953,PAYLOAD,2022-11-08 03:40:36,15.08854474,0.0001496999999999,53.2158,184.854,69.5903,290.525,0.00036337,5.502e-05,0.0,0 STARLINK-3953,1 52559U 22051AC  22312.15320308  .00005502  00000-0  36337-3 0  9995,2 52559  53.2158 184.8540 0001497  69.5903 290.5250 15.08854474 27845,6917.8359999999975,95.437,540.737,538.6659999999998,0.0
52559.0,STARLINK-3953,PAYLOAD,2022-11-08 08:26:45,15.08860061,0.0001538,53.2157,183.9622,63.6143,296.5006,0.00052813,8.132e-05,0.0,0 STARLINK-3953,1 52559U 22051AC  22312.35191984  .00008132  00000-0  52813-3 0  9992,2 52559  53.2157 183.9622 0001538  63.6143 296.5006 15.08860061 27802,6917.819,95.436,540.748,538.62,0.0
52559.0,STARLINK-3953,PAYLOAD,2022-11-09 01:55:59,15.08874979,0.0001269,53.2152,180.6909,64.619,295.4933,0.00048635,7.468e-05,0.0,0 STARLINK-3953,1 52559U 22051AC  22313.08054489  .00007468  00000-0  48635-3 0  9999,2 52559  53.2152 180.6909 0001269  64.6190 295.4933 15.08874979 27982,6917.773,95.435,540.516,538.761,0.0
52559.0,STARLINK-3953,PAYLOAD,2022-11-09 03:31:22,15.08876583,0.000136,53.2152,180.3934,65.0721,295.0412,0.00055257,8.526e-05,0.0,0 STARLINK-3953,1 52559U 22051AC  22313.14678352  .00008526  00000-0  55257-3 0  9991,2 52559  53.2152 180.3934 0001360  65.0721 295.0412 15.08876583 27929,6917.769,95.435,540.5740000000002,538.693,0.0
52559.0,STARLINK-3953,PAYLOAD,2022-11-09 21:00:36,15.08848954,0.0001478,53.2151,177.1221,63.2767,296.8376,1.2096e-05,-9.5e-07,0.0,0 STARLINK-3953,1 52559U 22051AC  22313.87542437 -.00000095  00000-0  12096-4 0  9994,2 52559  53.2151 177.1221 0001478  63.2767 296.8376 15.08848954 28101,6917.853,95.437,540.74,538.696,0.0
52559.0,STARLINK-3953,PAYLOAD,2022-11-10 08:08:19,15.0882645,0.000128,53.2144,175.041,72.1421,287.9711,-4.2963e-05,-9.71e-06,0.0,0 STARLINK-3953,1 52559U 22051AC  22314.33911030 -.00000971  00000-0 -42963-4 0  9995,2 52559  53.2144 175.0410 0001280  72.1421 287.9711 15.08826450 28108,6917.922,95.438,540.672,538.901,0.0
52559.0,STARLINK-3953,PAYLOAD,2022-11-10 14:29:52,15.08824976,0.0001346,53.2146,173.8511,68.9079,291.2057,0.00023521,3.456e-05,0.0,0 STARLINK-3953,1 52559U 22051AC  22314.60407408  .00003456  00000-0  23521-3 0  9991,2 52559  53.2146 173.8511 0001346  68.9079 291.2057 15.08824976 28217,6917.926,95.439,540.722,538.86,0.0
52559.0,STARLINK-3953,PAYLOAD,2022-11-10 20:51:24,15.08829268,0.0001478,53.2149,172.6615,67.0879,293.0269,0.00013423,1.848e-05,0.0,0 STARLINK-3953,1 52559U 22051AC  22314.86903579  .00001848  00000-0  13423-3 0  9992,2 52559  53.2149 172.6615 0001478  67.0879 293.0269 15.08829268 28186,6917.913000000001,95.438,540.8009999999998,538.756,0.0
52559.0,STARLINK-3953,PAYLOAD,2022-11-11 07:59:07,15.08813927,0.0001436,53.215,170.5792,65.718,294.3962,2.4486e-05,1.02e-06,0.0,0 STARLINK-3953,1 52559U 22051AC  22315.33272745  .00000102  00000-0  24486-4 0  9993,2 52559  53.2150 170.5792 0001436  65.7180 294.3962 15.08813927 28320,6917.96,95.439,540.819,538.832,0.0
52559.0,STARLINK-3953,PAYLOAD,2022-11-11 20:42:13,15.08819001,0.0001395999999999,53.2146,168.2011,60.6807,299.4324,0.00011204,1.495e-05,0.0,0 STARLINK-3953,1 52559U 22051AC  22315.86265528  .00001495  00000-0  11204-3 0  9991,2 52559  53.2146 168.2011 0001396  60.6807 299.4324 15.08819001 28336,6917.945,95.439,540.775,538.844,0.0
52559.0,STARLINK-3953,PAYLOAD,2022-11-12 14:11:28,15.08830712,0.0001379,53.2149,164.9304,58.1919,301.9207,0.00033058,4.976e-05,0.0,0 STARLINK-3953,1 52559U 22051AC  22316.59130056  .00004976  00000-0  33058-3 0  9997,2 52559  53.2149 164.9304 0001379  58.1919 301.9207 15.08830712 28515,6917.909000000002,95.438,540.7280000000002,538.82,0.0
52559.0,STARLINK-3953,PAYLOAD,2022-11-12 20:33:00,15.08834487,0.0001374,53.2151,163.7406,59.7121,300.4007,0.00042403,6.466e-05,0.0,0 STARLINK-3953,1 52559U 22051AC  22316.85626144  .00006466  00000-0  42403-3 0  9994,2 52559  53.2151 163.7406 0001374  59.7121 300.4007 15.08834487 28486,6917.897,95.438,540.7130000000002,538.812,0.0
52559.0,STARLINK-3953,PAYLOAD,2022-11-12 23:43:47,15.08837323,0.0001386999999999,53.2151,163.1459,59.6717,300.4413,0.00044887,6.863e-05,0.0,0 STARLINK-3953,1 52559U 22051AC  22316.98874139  .00006863  00000-0  44887-3 0  9996,2 52559  53.2151 163.1459 0001387  59.6717 300.4413 15.08837323 28508,6917.889,95.438,540.7130000000002,538.794,0.0
52559.0,STARLINK-3953,PAYLOAD,2022-11-13 18:48:24,15.08852734,0.0001424,53.2153,159.5775,57.6936,302.4194,0.00047714,7.316e-05,0.0,0 STARLINK-3953,1 52559U 22051AC  22317.78361759  .00007316  00000-0  47714-3 0  9990,2 52559  53.2153 159.5775 0001424  57.6936 302.4194 15.08852734 28694,6917.840999999999,95.437,540.692,538.721,0.0
52559.0,STARLINK-3953,PAYLOAD,2022-11-14 01:09:57,15.08840478,0.0001431999999999,53.2156,158.3884,56.7725,303.3405,4.229100000000001e-05,3.85e-06,0.0,0 STARLINK-3953,1 52559U 22051AC  22318.04857998  .00000385  00000-0  42291-4 0  9990,2 52559  53.2156 158.3884 0001432  56.7725 303.3405 15.08840478 28732,6917.879,95.438,540.735,538.753,0.0
52559.0,STARLINK-3953,PAYLOAD,2022-11-14 17:03:49,15.08847291,0.0001517,53.2156,155.4145,67.0313,293.0839,0.00035616,5.386e-05,0.0,0 STARLINK-3953,1 52559U 22051AC  22318.71098401  .00005386  00000-0  35616-3 0  9998,2 52559  53.2156 155.4145 0001517  67.0313 293.0839 15.08847291 28761,6917.858,95.437,540.773,538.674,0.0
52559.0,STARLINK-3953,PAYLOAD,2022-11-15 05:46:54,15.08850709,0.0001561,53.216,153.0357,64.9744,295.141,0.0005887,9.096e-05,0.0,0 STARLINK-3953,1 52559U 22051AC  22319.24090404  .00009096  00000-0  58870-3 0  9991,2 52559  53.2160 153.0357 0001561  64.9744 295.1410 15.08850709 28911,6917.848000000001,95.437,540.793,538.633,0.0
52559.0,STARLINK-3953,PAYLOAD,2022-11-15 20:05:21,15.08857515,0.0001494,53.2158,150.3588,63.9189,296.1957,0.00045283,6.929999999999999e-05,0.0,0 STARLINK-3953,1 52559U 22051AC  22319.83705791  .00006930  00000-0  45283-3 0  9996,2 52559  53.2158 150.3588 0001494  63.9189 296.1957 15.08857515 28932,6917.8269999999975,95.436,540.725,538.658,0.0
52559.0,STARLINK-3953,PAYLOAD,2022-11-16 05:37:40,15.08862713,0.0001512,53.2157,148.5749,64.0973,296.0175,0.00030459,4.566e-05,0.0,0 STARLINK-3953,1 52559U 22051AC  22320.23449111  .00004566  00000-0  30459-3 0  9995,2 52559  53.2157 148.5749 0001512  64.0973 296.0175 15.08862713 28996,6917.811,95.436,540.722,538.63,0.0
52559.0,STARLINK-3953,PAYLOAD,2022-11-16 19:56:08,15.08843782,0.0001569,53.2159,145.8989,64.9478,295.1677,-0.00011677,-2.146e-05,0.0,0 STARLINK-3953,1 52559U 22051AC  22320.83065335 -.00002146  00000-0 -11677-3 0  9998,2 52559  53.2159 145.8989 0001569  64.9478 295.1677 15.08843782 29156,6917.869000000002,95.437,540.819,538.648,0.0
52559.0,STARLINK-3953,PAYLOAD,2022-11-17 11:49:59,15.08848901,0.0001584,53.2157,142.9251,64.3391,295.7765,1.6959e-05,-1.8e-07,0.0,0 STARLINK-3953,1 52559U 22051AC  22321.49304936 -.00000018  00000-0  16959-4 0  9998,2 52559  53.2157 142.9251 0001584  64.3391 295.7765 15.08848901 29184,6917.853,95.437,540.814,538.622,0.0
